OBJECT_NAME,OBJECT_ID,EPOCH,MEAN_MOTION,ECCENTRICITY,INCLINATION,RA_OF_ASC_NODE,ARG_OF_PERICENTER,MEAN_ANOMALY,EPHEMERIS_TYPE,CLASSIFICATION_TYPE,NORAD_CAT_ID,ELEMENT_SET_NO,REV_AT_EPOCH,BSTAR,MEAN_MOTION_DOT,MEAN_MOTION_DDOT
ONEWEB-0523,2022-138AE,2026-06-12T20:42:17.032896,13.20770714,.000278,87.9193,275.3020,101.3965,258.7480,0,U,54141,999,17873,-.41081E-4,-.4E-7,0
ONEWEB-0524,2022-138AF,2026-06-12T20:27:44.562240,13.20771080,.0002497,87.9192,275.3010,119.2810,240.8573,0,U,54142,999,17873,-.24186E-4,.3E-7,0
ONEWEB-0525,2022-138AG,2026-06-12T20:09:24.859584,13.19725088,.000149,87.9172,305.8306,103.6818,256.4481,0,U,54143,999,17625,-.58421E-4,-.1E-6,0
ONEWEB-0526,2022-138AH,2026-06-12T19:08:00.473280,13.19726201,.0001759,87.9174,305.8394,101.6824,258.4506,0,U,54144,999,17622,.10698E-3,.56E-6,0
ONEWEB-0529,2022-138AJ,2026-06-12T19:12:33.194016,13.19724383,.0001614,87.9166,305.8482,100.7593,259.3721,0,U,54145,999,17624,.16375E-3,.79E-6,0
ONEWEB-0531,2022-138AK,2026-06-12T20:08:21.751296,13.20771574,.0002796,87.9190,275.3016,107.0976,253.0464,0,U,54146,999,17873,-.12728E-3,-.39E-6,0
ONEWEB-0535,2022-138AL,2026-06-12T20:00:18.929952,13.19724822,.000217,87.9174,305.8257,96.3403,263.7977,0,U,54147,999,17626,-.10883E-3,-.31E-6,0
ONEWEB-0536,2022-138AM,2026-06-12T19:48:57.178656,13.20770954,.0002895,87.9179,275.3272,110.9902,249.1542,0,U,54148,999,17872,-.12443E-3,-.38E-6,0
ONEWEB-0527,2022-166A,2026-06-12T20:00:01.999008,13.21824580,.0001934,87.9258,244.8634,101.8417,122.4818,0,U,54642,999,524,-.10227E+0,-.4203E-3,0
ONEWEB-0528,2022-166B,2026-06-12T06:10:19.297920,13.21766663,.00019116,87.9253,244.9807,101.9998,258.1351,0,U,54643,999,17089,.24540135E-1,.10151E-3,0
ONEWEB-0539,2022-166C,2026-06-12T17:58:54.787008,13.21826564,.0001992,87.9260,244.8540,92.7857,267.3505,0,U,54644,999,17095,-.19842E-3,-.69E-6,0
ONEWEB-0540,2022-166D,2026-06-12T05:25:46.513920,13.21826893,.00020546,87.9254,244.9885,95.8878,264.2490,0,U,54645,999,17087,.1216107E-3,.63E-6,0
ONEWEB-0542,2022-166E,2026-06-12T18:13:26.120640,13.21827557,.0002052,87.9263,244.8505,90.5181,269.6188,0,U,54646,999,17095,-.15667E-3,-.52E-6,0
ONEWEB-0545,2022-166F,2026-06-12T06:28:32.714976,13.21827937,.00022264,87.9254,244.9601,86.3345,273.8044,0,U,54647,999,17085,.44439632E-4,.31E-6,0
ONEWEB-0580,2022-166G,2026-06-12T18:35:13.729344,13.21827627,.0002293,87.9253,244.8594,90.4715,269.6681,0,U,54648,999,17096,-.46092E-4,-.6E-7,0
ONEWEB-0582,2022-166H,2026-06-12T17:46:48.142272,13.21826415,.0002217,87.9254,244.8586,87.7292,272.4096,0,U,54649,999,17093,.52038E-5,.15E-6,0
ONEWEB-0583,2022-166J,2026-06-12T18:03:44.791200,13.21827478,.0002051,87.9253,244.8798,95.3004,264.8364,0,U,54650,999,17094,-.13779E-3,-.44E-6,0
ONEWEB-0584,2022-166K,2026-06-12T18:32:48.597216,13.21825424,.0002133,87.9251,244.8613,96.6774,263.4603,0,U,54651,999,17093,-.18725E-4,.5E-7,0
ONEWEB-0585,2022-166L,2026-06-12T06:23:43.239552,13.21826539,.00019605,87.9257,244.9490,103.3552,256.7801,0,U,54652,999,17087,-.15582552E-4,.7E-7,0
ONEWEB-0586,2022-166M,2026-06-12T06:43:04.039968,13.21824140,.0002022,87.9254,244.9718,94.0624,266.0741,0,U,54653,999,17087,.11954186E-4,.18E-6,0
ONEWEB-0587,2022-166N,2026-06-12T17:51:37.056096,13.21824171,.0001961,87.9265,244.8525,108.9938,251.1409,0,U,54654,999,17109,-.34812E-4,-.1E-7,0
ONEWEB-0589,2022-166P,2026-06-12T06:38:13.526880,13.21824104,.00025486,87.9251,244.9583,81.6077,278.5346,0,U,54655,999,17089,.58674008E-4,.37E-6,0
ONEWEB-0590,2022-166Q,2026-06-12T18:08:24.067104,13.21826769,.000248,87.9262,244.8528,102.0313,258.1099,0,U,54656,999,17094,-.17338E-3,-.59E-6,0
ONEWEB-0591,2022-166R,2026-06-12T18:25:33.917952,13.21826167,.00021,87.9252,244.8654,98.9996,261.1376,0,U,54657,999,17097,-.14619E-3,-.47E-6,0
ONEWEB-0592,2022-166S,2026-06-12T18:30:23.643936,13.21827529,.000203,87.9262,244.8424,98.8700,261.2664,0,U,54658,999,17085,-.35976E-4,-.2E-7,0
ONEWEB-0593,2022-166T,2026-06-12T04:29:50.214336,13.21827734,.00019532,87.9256,244.9707,94.4060,265.7297,0,U,54659,999,17088,.26749001E-3,.123E-5,0
ONEWEB-0594,2022-166U,2026-06-12T17:41:57.604992,13.21814465,.0002017,87.9258,244.8777,101.5841,258.5519,0,U,54660,999,17097,-.16535E-2,-.67E-5,0
ONEWEB-0595,2022-166V,2026-06-12T06:14:00.882816,13.21827116,.00020727,87.9262,244.9529,106.4271,253.7091,0,U,54661,999,17088,.15937043E-3,.79E-6,0
ONEWEB-0596,2022-166W,2026-06-12T18:20:42.806112,13.21826845,.0002041,87.9255,244.8643,101.9187,258.2176,0,U,54662,999,17095,-.93343E-4,-.26E-6,0
ONEWEB-0597,2022-166X,2026-06-12T17:54:04.068288,13.21826047,.0002023,87.9252,244.8711,94.9571,265.1794,0,U,54663,999,17095,-.18193E-3,-.62E-6,0
