ONEWEB-0523             
1 54141U 22138AE  26163.86269714 -.00000004  00000+0 -41081-4 0  9995
2 54141  87.9193 275.3020 0002780 101.3965 258.7480 13.20770714178737
ONEWEB-0524             
1 54142U 22138AF  26163.85259910  .00000003  00000+0 -24186-4 0  9997
2 54142  87.9192 275.3010 0002497 119.2810 240.8573 13.20771080178730
ONEWEB-0525             
1 54143U 22138AG  26163.83987106 -.00000010  00000+0 -58421-4 0  9999
2 54143  87.9172 305.8306 0001490 103.6818 256.4481 13.19725088176254
ONEWEB-0526             
1 54144U 22138AH  26163.79722770  .00000056  00000+0  10698-3 0  9990
2 54144  87.9174 305.8394 0001759 101.6824 258.4506 13.19726201176222
ONEWEB-0529             
1 54145U 22138AJ  26163.80038419  .00000079  00000+0  16375-3 0  9996
2 54145  87.9166 305.8482 0001614 100.7593 259.3721 13.19724383176245
ONEWEB-0531             
1 54146U 22138AK  26163.83914064 -.00000039  00000+0 -12728-3 0  9995
2 54146  87.9190 275.3016 0002796 107.0976 253.0464 13.20771574178731
ONEWEB-0535             
1 54147U 22138AL  26163.83355243 -.00000031  00000+0 -10883-3 0  9996
2 54147  87.9174 305.8257 0002170  96.3403 263.7977 13.19724822176266
ONEWEB-0536             
1 54148U 22138AM  26163.82566179 -.00000038  00000+0 -12443-3 0  9999
2 54148  87.9179 275.3272 0002895 110.9902 249.1542 13.20770954178729
ONEWEB-0527             
1 54642U 22166A   26163.83335647 -.00042030  00000+0 -10227+0 0  9996
2 54642  87.9258 244.8634 0001934 101.8417 122.4818 13.21824580  5243
ONEWEB-0528             
1 54643U 22166B   26163.25716780  .00010151  00000+0  24540-1 0  9996
2 54643  87.9253 244.9807 0001911 101.9998 258.1351 13.21766663170892
ONEWEB-0539             
1 54644U 22166C   26163.74924522 -.00000069  00000+0 -19842-3 0  9996
2 54644  87.9260 244.8540 0001992  92.7857 267.3505 13.21826564170951
ONEWEB-0540             
1 54645U 22166D   26163.22623280  .00000063  00000+0  12161-3 0  9996
2 54645  87.9254 244.9885 0002054  95.8878 264.2490 13.21826893170870
ONEWEB-0542             
1 54646U 22166E   26163.75933010 -.00000052  00000+0 -15667-3 0  9994
2 54646  87.9263 244.8505 0002052  90.5181 269.6188 13.21827557170956
ONEWEB-0545             
1 54647U 22166F   26163.26982309  .00000031  00000+0  44440-4 0  9993
2 54647  87.9254 244.9601 0002226  86.3345 273.8044 13.21827937170852
ONEWEB-0580             
1 54648U 22166G   26163.77446446 -.00000006  00000+0 -46092-4 0  9996
2 54648  87.9253 244.8594 0002293  90.4715 269.6681 13.21827627170961
ONEWEB-0582             
1 54649U 22166H   26163.74083498  .00000015  00000+0  52038-5 0  9994
2 54649  87.9254 244.8586 0002217  87.7292 272.4096 13.21826415170932
ONEWEB-0583             
1 54650U 22166J   26163.75260175 -.00000044  00000+0 -13779-3 0  9997
2 54650  87.9253 244.8798 0002051  95.3004 264.8364 13.21827478170944
ONEWEB-0584             
1 54651U 22166K   26163.77278469  .00000005  00000+0 -18725-4 0  9998
2 54651  87.9251 244.8613 0002133  96.6774 263.4603 13.21825424170937
ONEWEB-0585             
1 54652U 22166L   26163.26647268  .00000007  00000+0 -15583-4 0  9991
2 54652  87.9257 244.9490 0001960 103.3552 256.7801 13.21826539170871
ONEWEB-0586             
1 54653U 22166M   26163.27990787  .00000018  00000+0  11954-4 0  9999
2 54653  87.9254 244.9718 0002022  94.0624 266.0741 13.21824140170871
ONEWEB-0587             
1 54654U 22166N   26163.74417889 -.00000001  00000+0 -34812-4 0  9991
2 54654  87.9265 244.8525 0001961 108.9938 251.1409 13.21824171171098
ONEWEB-0589             
1 54655U 22166P   26163.27654545  .00000037  00000+0  58674-4 0  9991
2 54655  87.9251 244.9583 0002548  81.6077 278.5346 13.21824104170898
ONEWEB-0590             
1 54656U 22166Q   26163.75583411 -.00000059  00000+0 -17338-3 0  9995
2 54656  87.9262 244.8528 0002480 102.0313 258.1099 13.21826769170949
ONEWEB-0591             
1 54657U 22166R   26163.76775368 -.00000047  00000+0 -14619-3 0  9997
2 54657  87.9252 244.8654 0002100  98.9996 261.1376 13.21826167170975
ONEWEB-0592             
1 54658U 22166S   26163.77110699 -.00000002  00000+0 -35976-4 0  9990
2 54658  87.9262 244.8424 0002030  98.8700 261.2664 13.21827529170857
ONEWEB-0593             
1 54659U 22166T   26163.18738674  .00000123  00000+0  26749-3 0  9994
2 54659  87.9256 244.9707 0001953  94.4060 265.7297 13.21827734170882
ONEWEB-0594             
1 54660U 22166U   26163.73747228 -.00000670  00000+0 -16535-2 0  9992
2 54660  87.9258 244.8777 0002017 101.5841 258.5519 13.21814465170975
ONEWEB-0595             
1 54661U 22166V   26163.25973244  .00000079  00000+0  15937-3 0  9996
2 54661  87.9262 244.9529 0002072 106.4271 253.7091 13.21827116170888
ONEWEB-0596             
1 54662U 22166W   26163.76438433 -.00000026  00000+0 -93343-4 0  9991
2 54662  87.9255 244.8643 0002041 101.9187 258.2176 13.21826845170959
ONEWEB-0597             
1 54663U 22166X   26163.74588042 -.00000062  00000+0 -18193-3 0  9991
2 54663  87.9252 244.8711 0002023  94.9571 265.1794 13.21826047170958
